ONEWEB-0393             
1 50473U 21132E   24041.58334491 -.00026682  00000+0 -67342-1 0  9994
2 50473  87.9249 176.4026 0001130 103.5450 105.3843 13.19256215  5081
ONEWEB-0394             
1 50474U 21132F   24041.31400070  .00000106  00000+0  23649-3 0  9998
2 50474  87.9240 146.1885 0001700 109.7745 250.3570 13.18686895108530
ONEWEB-0395             
1 50475U 21132G   24041.43911670 -.00000451  00000+0 -13087-2 0  9994
2 50475  87.8996 191.5973 0001225 107.7837 252.3424 13.11418409103297
ONEWEB-0396             
1 50476U 21132H   24041.30767016  .00000091  00000+0  19698-3 0  9997
2 50476  87.9244 146.1816 0001801 115.1451 244.9868 13.18684018108575
ONEWEB-0397             
1 50477U 21132J   24041.32190238  .00000103  00000+0  22789-3 0  9995
2 50477  87.9245 146.1802 0001786 115.9621 244.1695 13.18684745108556
ONEWEB-0398             
1 50478U 21132K   24041.48295654  .00000576  00000+0  15883-2 0  9991
2 50478  87.8991 191.5731 0001086  92.0480 268.0773 13.11416064103197
ONEWEB-0399             
1 50479U 21132L   24041.46834841  .00000345  00000+0  93629-3 0  9996
2 50479  87.8993 191.5903 0001819 111.5160 248.6162 13.11417930103185
ONEWEB-0400             
1 50480U 21132M   24041.30135261  .00000104  00000+0  23173-3 0  9991
2 50480  87.9240 146.1921 0001554 101.3065 258.8242 13.18685571108548
